{"type": "FeatureCollection", "features": [ {"type": "Feature", "properties": {"norad_id": 29769, "name": "FENGYUN 1C DEB", "group": "fengyun-1c-debris", "lat": -57.66075827022377, "lon": 59.75459613608605, "alt_km": 921.7302417315514, "timestamp": "2025-12-13T18:50:04.701679+00:00", "meta": {"OBJECT_NAME": "FENGYUN 1C DEB", "OBJECT_ID": "1999-025BK", "EPOCH": "2025-12-13T02:07:44.144832", "MEAN_MOTION": 14.13533359, "ECCENTRICITY": 0.00938493, "INCLINATION": 99.1047, "RA_OF_ASC_NODE": 44.3746, "ARG_OF_PERICENTER": 129.5062, "MEAN_ANOMALY": 231.4454, "EPHEMERIS_TYPE": 0, "CLASSIFICATION_TYPE": "U", "NORAD_CAT_ID": 29769, "ELEMENT_SET_NO": 999, "REV_AT_EPOCH": 96686, "BSTAR": 0.0021856991, "MEAN_MOTION_DOT": 4.25e-05, "MEAN_MOTION_DDOT": 0}, "tle": {"line1": "1 29769U 99025BK  25347.08870538  .00004250  00000+0  21857-2 0  9993", "line2": "2 29769  99.1047  44.3746 0093849 129.5062 231.4454 14.13533359966866"}}, "geometry": {"type": "Point", "coordinates": [59.75459613608605, -57.66075827022377]}}, {"type": "Feature", "properties": {"norad_id": 29770, "name": "FENGYUN 1C DEB", "group": "fengyun-1c-debris", "lat": 66.2713969022624, "lon": -95.89503347556281, "alt_km": 859.6907093764066, "timestamp": "2025-12-13T18:50:04.701690+00:00", "meta": {"OBJECT_NAME": "FENGYUN 1C DEB", "OBJECT_ID": "1999-025BL", "EPOCH": "2025-12-11T16:18:23.937408", "MEAN_MOTION": 14.20105451, "ECCENTRICITY": 0.00626785, "INCLINATION": 98.8463, "RA_OF_ASC_NODE": 61.2503, "ARG_OF_PERICENTER": 274.3037, "MEAN_ANOMALY": 240.7519, "EPHEMERIS_TYPE": 0, "CLASSIFICATION_TYPE": "U", "NORAD_CAT_ID": 29770, "ELEMENT_SET_NO": 999, "REV_AT_EPOCH": 97071, "BSTAR": 0.0023206891, "MEAN_MOTION_DOT": 5.002e-05, "MEAN_MOTION_DDOT": 0}, "tle": {"line1": "1 29770U 99025BL  25345.67944372  .00005002  00000+0  23207-2 0  9993", "line2": "2 29770  98.8463  61.2503 0062678 274.3037 240.7519 14.20105451970712"}}, "geometry": {"type": "Point", "coordinates": [-95.89503347556281, 66.2713969022624]}}, {"type": "Feature", "properties": {"norad_id": 29772, "name": "FENGYUN 1C DEB", "group": "fengyun-1c-debris", "lat": -30.320120726943927, "lon": -158.14581996865058, "alt_km": 813.5524042215802, "timestamp": "2025-12-13T18:50:04.701701+00:00", "meta": {"OBJECT_NAME": "FENGYUN 1C DEB", "OBJECT_ID": "1999-025BN", "EPOCH": "2025-12-10T07:59:03.938208", "MEAN_MOTION": 14.0319606, "ECCENTRICITY": 0.0138223, "INCLINATION": 98.3886, "RA_OF_ASC_NODE": 193.7194, "ARG_OF_PERICENTER": 297.041, "MEAN_ANOMALY": 242.7077, "EPHEMERIS_TYPE": 0, "CLASSIFICATION_TYPE": "U", "NORAD_CAT_ID": 29772, "ELEMENT_SET_NO": 999, "REV_AT_EPOCH": 96221, "BSTAR": 0.0016568, "MEAN_MOTION_DOT": 2.769e-05, "MEAN_MOTION_DDOT": 0}, "tle": {"line1": "1 29772U 99025BN  25344.33268447  .00002769  00000+0  16568-2 0  9998", "line2": "2 29772  98.3886 193.7194 0138223 297.0410 242.7077 14.03196060962216"}}, "geometry": {"type": "Point", "coordinates": [-158.14581996865058, -30.320120726943927]}}, {"type": "Feature", "properties": {"norad_id": 29773, "name": "FENGYUN 1C DEB", "group": "fengyun-1c-debris", "lat": 70.66150844893963, "lon": -11.778747881855661, "alt_km": 826.2683514424225, "timestamp": "2025-12-13T18:50:04.701712+00:00", "meta": {"OBJECT_NAME": "FENGYUN 1C DEB", "OBJECT_ID": "1999-025BP", "EPOCH": "2025-12-12T17:10:26.919840", "MEAN_MOTION": 14.27570263, "ECCENTRICITY": 0.0046365, "INCLINATION": 98.9875, "RA_OF_ASC_NODE": 140.3173, "ARG_OF_PERICENTER": 290.75, "MEAN_ANOMALY": 84.668, "EPHEMERIS_TYPE": 0, "CLASSIFICATION_TYPE": "U", "NORAD_CAT_ID": 29773, "ELEMENT_SET_NO": 999, "REV_AT_EPOCH": 98197, "BSTAR": 0.00057918766, "MEAN_MOTION_DOT": 1.394e-05, "MEAN_MOTION_DDOT": 0}, "tle": {"line1": "1 29773U 99025BP  25346.71558935  .00001394  00000+0  57919-3 0  9996", "line2": "2 29773  98.9875 140.3173 0046365 290.7500  84.6680 14.27570263981975"}}, "geometry": {"type": "Point", "coordinates": [-11.778747881855661, 70.66150844893963]}}, {"type": "Feature", "properties": {"norad_id": 29774, "name": "FENGYUN 1C DEB", "group": "fengyun-1c-debris", "lat": 54.049883484672606, "lon": -84.58857792268816, "alt_km": 795.3676740781675, "timestamp": "2025-12-13T18:50:04.701723+00:00", "meta": {"OBJECT_NAME": "FENGYUN 1C DEB", "OBJECT_ID": "1999-025BQ", "EPOCH": "2025-12-13T01:45:23.488992", "MEAN_MOTION": 14.22732851, "ECCENTRICITY": 0.0051105, "INCLINATION": 99.0761, "RA_OF_ASC_NODE": 287.4121, "ARG_OF_PERICENTER": 122.3225, "MEAN_ANOMALY": 250.7313, "EPHEMERIS_TYPE": 0, "CLASSIFICATION_TYPE": "U", "NORAD_CAT_ID": 29774, "ELEMENT_SET_NO": 999, "REV_AT_EPOCH": 98080, "BSTAR": 0.00026223468, "MEAN_MOTION_DOT": 5.49e-06, "MEAN_MOTION_DDOT": 0}, "tle": {"line1": "1 29774U 99025BQ  25347.07318853  .00000549  00000+0  26223-3 0  9995", "line2": "2 29774  99.0761 287.4121 0051105 122.3225 250.7313 14.22732851980808"}}, "geometry": {"type": "Point", "coordinates": [-84.58857792268816, 54.049883484672606]}}, {"type": "Feature", "properties": {"norad_id": 29776, "name": "FENGYUN 1C DEB", "group": "fengyun-1c-debris", "lat": -64.82665921493059, "lon": 175.33057200000727, "alt_km": 858.8093843730567, "timestamp": "2025-12-13T18:50:04.701733+00:00", "meta": {"OBJECT_NAME": "FENGYUN 1C DEB", "OBJECT_ID": "1999-025BS", "EPOCH": "2025-12-13T07:43:58.156032", "MEAN_MOTION": 14.07775362, "ECCENTRICITY": 0.00227951, "INCLINATION": 98.7712, "RA_OF_ASC_NODE": 14.0587, "ARG_OF_PERICENTER": 269.1261, "MEAN_ANOMALY": 154.2037, "EPHEMERIS_TYPE": 0, "CLASSIFICATION_TYPE": "U", "NORAD_CAT_ID": 29776, "ELEMENT_SET_NO": 999, "REV_AT_EPOCH": 97088, "BSTAR": 0.00025459617, "MEAN_MOTION_DOT": 3.89e-06, "MEAN_MOTION_DDOT": 0}, "tle": {"line1": "1 29776U 99025BS  25347.32220088  .00000389  00000+0  25460-3 0  9991", "line2": "2 29776  98.7712  14.0587 0022795 269.1261 154.2037 14.07775362970880"}}, "geometry": {"type": "Point", "coordinates": [175.33057200000727, -64.82665921493059]}}, {"type": "Feature", "properties": {"norad_id": 29777, "name": "FENGYUN 1C DEB", "group": "fengyun-1c-debris", "lat": -52.84709292331458, "lon": -147.81750365942221, "alt_km": 867.6486228973699, "timestamp": "2025-12-13T18:50:04.701744+00:00", "meta": {"OBJECT_NAME": "FENGYUN 1C DEB", "OBJECT_ID": "1999-025BT", "EPOCH": "2025-12-13T02:30:10.654272", "MEAN_MOTION": 13.92104864, "ECCENTRICITY": 0.00927419, "INCLINATION": 99.2837, "RA_OF_ASC_NODE": 43.9671, "ARG_OF_PERICENTER": 208.7532, "MEAN_ANOMALY": 216.0858, "EPHEMERIS_TYPE": 0, "CLASSIFICATION_TYPE": "U", "NORAD_CAT_ID": 29777, "ELEMENT_SET_NO": 999, "REV_AT_EPOCH": 96046, "BSTAR": 0.00028931739, "MEAN_MOTION_DOT": 3.38e-06, "MEAN_MOTION_DDOT": 0}, "tle": {"line1": "1 29777U 99025BT  25347.10428998  .00000338  00000+0  28932-3 0  9999", "line2": "2 29777  99.2837  43.9671 0092741 208.7532 216.0858 13.92104864960465"}}, "geometry": {"type": "Point", "coordinates": [-147.81750365942221, -52.84709292331458]}}, {"type": "Feature", "properties": {"norad_id": 29779, "name": "FENGYUN 1C DEB", "group": "fengyun-1c-debris", "lat": -80.37761963442132, "lon": 63.247539094231435, "alt_km": 872.6048389662428, "timestamp": "2025-12-13T18:50:04.701755+00:00", "meta": {"OBJECT_NAME": "FENGYUN 1C DEB", "OBJECT_ID": "1999-025BV", "EPOCH": "2025-12-13T07:21:06.878304", "MEAN_MOTION": 14.1344341, "ECCENTRICITY": 0.00635189, "INCLINATION": 98.6773, "RA_OF_ASC_NODE": 358.5264, "ARG_OF_PERICENTER": 162.5671, "MEAN_ANOMALY": 197.7703, "EPHEMERIS_TYPE": 0, "CLASSIFICATION_TYPE": "U", "NORAD_CAT_ID": 29779, "ELEMENT_SET_NO": 999, "REV_AT_EPOCH": 97420, "BSTAR": 0.00034438356, "MEAN_MOTION_DOT": 6.18e-06, "MEAN_MOTION_DDOT": 0}, "tle": {"line1": "1 29779U 99025BV  25347.30632961  .00000618  00000+0  34438-3 0  9999", "line2": "2 29779  98.6773 358.5264 0063518 162.5671 197.7703 14.13443410974201"}}, "geometry": {"type": "Point", "coordinates": [63.247539094231435, -80.37761963442132]}}, {"type": "Feature", "properties": {"norad_id": 29780, "name": "FENGYUN 1C DEB", "group": "fengyun-1c-debris", "lat": 66.17743807885695, "lon": -112.96339516017424, "alt_km": 799.4125063164001, "timestamp": "2025-12-13T18:50:04.701766+00:00", "meta": {"OBJECT_NAME": "FENGYUN 1C DEB", "OBJECT_ID": "1999-025BW", "EPOCH": "2025-12-12T00:16:11.656128", "MEAN_MOTION": 14.21032654, "ECCENTRICITY": 0.00404925, "INCLINATION": 99.2771, "RA_OF_ASC_NODE": 266.9031, "ARG_OF_PERICENTER": 130.2254, "MEAN_ANOMALY": 230.2476, "EPHEMERIS_TYPE": 0, "CLASSIFICATION_TYPE": "U", "NORAD_CAT_ID": 29780, "ELEMENT_SET_NO": 999, "REV_AT_EPOCH": 97068, "BSTAR": 0.0026897266, "MEAN_MOTION_DOT": 5.839e-05, "MEAN_MOTION_DDOT": 0}, "tle": {"line1": "1 29780U 99025BW  25346.01124602  .00005839  00000+0  26897-2 0  9995", "line2": "2 29780  99.2771 266.9031 0040492 130.2254 230.2476 14.21032654970688"}}, "geometry": {"type": "Point", "coordinates": [-112.96339516017424, 66.17743807885695]}}, {"type": "Feature", "properties": {"norad_id": 29781, "name": "FENGYUN 1C DEB", "group": "fengyun-1c-debris", "lat": -39.42305515211823, "lon": -10.76546287137404, "alt_km": 927.1967180155734, "timestamp": "2025-12-13T18:50:04.701777+00:00", "meta": {"OBJECT_NAME": "FENGYUN 1C DEB", "OBJECT_ID": "1999-025BX", "EPOCH": "2025-12-13T05:25:53.759424", "MEAN_MOTION": 14.05227744, "ECCENTRICITY": 0.00719051, "INCLINATION": 98.8095, "RA_OF_ASC_NODE": 341.3678, "ARG_OF_PERICENTER": 171.7841, "MEAN_ANOMALY": 204.3224, "EPHEMERIS_TYPE": 0, "CLASSIFICATION_TYPE": "U", "NORAD_CAT_ID": 29781, "ELEMENT_SET_NO": 999, "REV_AT_EPOCH": 96650, "BSTAR": 0.00091311722, "MEAN_MOTION_DOT": 1.468e-05, "MEAN_MOTION_DDOT": 0}, "tle": {"line1": "1 29781U 99025BX  25347.22631666  .00001468  00000+0  91312-3 0  9992", "line2": "2 29781  98.8095 341.3678 0071905 171.7841 204.3224 14.05227744966500"}}, "geometry": {"type": "Point", "coordinates": [-10.76546287137404, -39.42305515211823]}}]}